[
    {
        "Altitude(m)": 607911.006332943,
        "Argument of Periapsis(deg)": 0.0,
        "Eccentricity": 0.0,
        "Inclination(deg)": 60.0,
        "Latitude(deg)": -14.292928976703887,
        "Longitude(deg)": 8.442678804269589,
        "Mean Anomaly(deg)": -163.6364,
        "RAAN(deg)": 280.0,
        "Satellite Name": "Test1 1244",
        "Satellite Number": 1244,
        "Semi-Major Axis(m)": 6980739.136638005,
        "Time(s)": 0
    },
    {
        "Altitude(m)": 608060.2397203465,
        "Argument of Periapsis(deg)": 0.00010418945913296404,
        "Eccentricity": 0.0,
        "Inclination(deg)": 60.0,
        "Latitude(deg)": -14.826589753986832,
        "Longitude(deg)": 8.731289444751754,
        "Mean Anomaly(deg)": -163.01629385453816,
        "RAAN(deg)": 279.99957995086027,
        "Satellite Name": "Test1 1244",
        "Satellite Number": 1244,
        "Semi-Major Axis(m)": 6980739.136638005,
        "Time(s)": 10
    }
]